,Id,NAME,NAME_ENG,DIRECTOR,PHONE,UPDATER,OBJECTID,GlobalID,Duureg,Khoroo,Bairshil,Zereglel,Burtgel,x,y,xy,lat_lon
0,2.0,Буйлан нуур,Builan nuur,J.Munkhjargal,96052151,П.Отгонцэрэн,364,{09878FCA-5CB8-426D-8F40-8236924B5CC2},,,,,,11890140.63129976,6085155.733336426,"11890140.63129976,6085155.733336426","(47.869403908222736, 106.81095059427109)"
1,2.0,Ориг нуур,Orig nuur,Ts.Nergui,,П.Отгонцэрэн,367,{4D72B9FB-1C2F-4EF9-93FF-2E2AB72F6849},,,,,,11884868.457016025,6084743.461595275,"11884868.457016025,6084743.461595275","(47.86691945661453, 106.7635898468749)"
2,2.0,Баянсонгино,Bayansongino,D.Dogsmaa,492171,П.Отгонцэрэн,376,{B66C17D3-A7AD-41F4-844B-99E50EF03F9D},,,,,,11875394.967989175,6081156.376806471,"11875394.967989175,6081156.376806471","(47.84529776918222, 106.67848804700729)"
3,2.0,Ган аньст эс,Gan anist es,D.Ulziikhishig,99753297,П.Отгонцэрэн,362,{1E0A4D0C-4C86-4DC9-946A-15D716C27442},,,,,,11889868.961325059,6084736.969485033,"11889868.961325059,6084736.969485033","(47.866880332598036, 106.80851014136599)"
4,2.0,Догдлол,Dogdlol,M.Uuriintuya,91151255,П.Отгонцэрэн,373,{E0AE57A2-444A-4F32-A0D3-526EE8D42B37},,,,,,11878668.204674333,6071625.544344712,"11878668.204674333,6071625.544344712","(47.78780545108565, 106.7078920324355)"
5,1.0,Тайгам фарм,Taigam pharm,N.Tsetsegmaa,96601213,П.Отгонцэрэн,104,{C52D5E79-3C21-47B9-BFBC-CA82FC1B0324},,,,,,11884438.772431612,6082982.839918742,"11884438.772431612,6082982.839918742","(47.85630817407716, 106.7597299245796)"
6,2.0,Алтан шимт,Altan shimt,D.Ganchimeg,93023260,П.Отгонцэрэн,365,{B3D82924-A34F-458D-B0B9-96BE46EC1420},,,,,,11890121.498539124,6084767.654079989,"11890121.498539124,6084767.654079989","(47.86706524980776, 106.81077872175803)"
7,2.0,Нахиа нисэх,Nakhia niseh,Ch.Azbayar,99137427,П.Отгонцэрэн,368,{30180277-8168-45F7-B5D2-48769C842F4A},,,,,,11884542.072334457,6085007.330560497,"11884542.072334457,6085007.330560497","(47.86850961006322, 106.76065788339533)"
8,2.0,Их халзан бүргэдэй,Ikh khalzan burgedei,Yu.Duurenjargal,88129192,П.Отгонцэрэн,363,{89A7E55F-F313-444A-8C77-5B181000809B},,,,,,11890119.37926294,6084999.810136173,"11890119.37926294,6084999.810136173","(47.86846429040829, 106.81075968397614)"
9,2.0,Ариун чиг,Ariun chig,L.Oyunchimeg,99088050,П.Отгонцэрэн,372,{F02F82DE-F264-44A7-8185-E641A27465F2},,,,,,11878715.656472307,6071246.08718644,"11878715.656472307,6071246.08718644","(47.78551515471262, 106.70831829918927)"
10,1.0,Эмийн сан,Emiin san,T.Tsendayush,99137864,П.Отгонцэрэн,160,{437E1819-8284-4A7E-BA0D-A372594EA2A2},,,,,,11890249.22877982,6084778.194297681,"11890249.22877982,6084778.194297681","(47.867128769074576, 106.81192614203265)"
11,2.0,Лимбийн эрээн,Linbiin ereen,S.Baatar,99754562,П.Отгонцэрэн,366,{17056F77-43C3-4F3F-B20F-F61A4CDE2833},,,,,,11891041.888724828,6085356.951583595,"11891041.888724828,6085356.951583595","(47.87061645596212, 106.81904672746974)"
0,2.0,Алтан могой ,Altan mogoi,D.Gunjidmaa,99140869,П.Отгонцэрэн,261,{16D2E084-8830-4484-B1C1-EBFD9B3A48AD},,,,,,11908286.677287461,6094275.661504755,"11908286.677287461,6094275.661504755","(47.924332399406936, 106.97395929884196)"
1,2.0,Даш ,Dash ,Ts.Dashzeveg,,П.Отгонцэрэн,238,{A9053E99-2624-4B3C-820A-DED752B44192},,,,,,11908368.751789467,6092857.054220835,"11908368.751789467,6092857.054220835","(47.91579208489076, 106.97469658663786)"
2,2.0,Гамба трейд-3,Gamba trade-3,B.Gantuya,99075372,П.Отгонцэрэн,355,{4DCE12E3-04E5-485B-B9E4-4A6D8D15B384},,,,,,11899608.80126988,6089591.75363008,"11899608.80126988,6089591.75363008","(47.89612893041469, 106.89600461223908)"
3,1.0,Нобо,Nobo,Yo.Solongo,98990255,П.Отгонцэрэн,23,{67671AE1-EB75-43CB-A7FB-784B0E227A02},,,,,,11898094.570987944,6093917.686885897,"11898094.570987944,6093917.686885897","(47.9221774498288, 106.88240205017969)"
4,1.0,Цахиур төмөр эс,Tsahiur tumur es,A.Delgermaa,99114303,П.Отгонцэрэн,46,{E851B178-4C9D-4B2B-A4F5-E97432640DFA},,,,,,11904825.71826582,6093929.902406611,"11904825.71826582,6093929.902406611","(47.92225098677647, 106.94286897497346)"
5,2.0,Энхэс ,Enkhes,P.Davaasuren,99114027,П.Отгонцэрэн,215,{0ED87316-6C5F-4245-B3E3-49E59487E4FA},,,,,,11904620.84010605,6094359.598013269,"11904620.84010605,6094359.598013269","(47.924837670683374, 106.94102852315041)"
6,2.0,МЭИК фарммаркет,MEIK pharmmarket,N.Mungunzagas,99096978,П.Отгонцэрэн,378,{FFBE0E47-1F08-45ED-BDF2-2A582AA856DC},,,,,,11900429.526844198,6093810.193913571,"11900429.526844198,6093810.193913571","(47.92153034191392, 106.90337731551388)"
7,1.0,Ази фарм,Asia pharm,G.Bayarjargal,88118779,П.Отгонцэрэн,192,{6582AF83-DF68-42CF-B552-18E916D0C9CD},,,,,,11901286.308013702,6094096.565030844,"11901286.308013702,6094096.565030844","(47.923254278686855, 106.91107391171099)"
8,1.0,Цагаан уул,Tsagaan Uul,Z.Oyunbileg,"319653,55257640",П.Отгонцэрэн,92,{5FB026AA-59AB-4EAB-8693-1444FB2F6ED2},,,,,,11902931.062266553,6093988.044414819,"11902931.062266553,6093988.044414819","(47.92260099791483, 106.92584899055055)"
9,2.0,Бадаан фарм,Badaan pharm,J.Davaasuren,99167329,П.Отгонцэрэн,384,{C020AF3A-D46A-451E-B69F-B41515AADEF6},,,,,,11898887.91377915,6090567.563113946,"11898887.91377915,6090567.563113946","(47.902005892589756, 106.88952876972857)"
10,1.0,Бадаан,Badaan,D.Erdenetsetseg,"99116820,319256",П.Отгонцэрэн,161,{158B32A6-6C4E-4309-AC1E-E984C136BA7A},,,,,,11900450.145943059,6092919.666994855,"11900450.145943059,6092919.666994855","(47.916169056712356, 106.90356254003038)"
11,2.0,Чодбацо.ХХК,Chodbatso.LLC,G.Sanchirmaa,"91910575,70125666",П.Отгонцэрэн,361,{90611424-B52F-40A8-8AD9-A031828CA345},,,,,,11901106.707014292,6089402.55503855,"11901106.707014292,6089402.55503855","(47.89498937568542, 106.90946052848285)"
12,1.0,Итгэл жам фарм,Itgel jam pharm,N.Mashbat,88100522,П.Отгонцэрэн,29,{D19212B0-883B-4BB2-9F7E-4B67F45002AA},,,,,,11904544.775933899,6093257.858118774,"11904544.775933899,6093257.858118774","(47.918205151632996, 106.94034522706625)"
13,2.0,Ачит тун,Achit tun,B.Ononchimeg,96650205,П.Отгонцэрэн,232,{FEBE520A-D2C8-4C8F-B1F9-6F99DA823E84},,,,,,11904833.511437628,6093871.37669453,"11904833.511437628,6093871.37669453","(47.92189866337383, 106.94293898222693)"
14,2.0,Саруул амьдрал хөгжил,Saruul amidral hugjil,T.Shur,99125192,П.Отгонцэрэн,315,{C91B7F77-0ADD-49F5-A7D5-095A0866C27E},,,,,,11901419.021630043,6092504.298491793,"11901419.021630043,6092504.298491793","(47.9136682022575, 106.91226609841068)"
15,1.0,Монос мойл,Monos moil,T.Narantsetseg,"319256,99116820",П.Отгонцэрэн,169,{F126C792-B3CD-4CBE-A26F-297B31C04BCD},,,,,,11899653.772558443,6092814.692872301,"11899653.772558443,6092814.692872301","(47.91553703897559, 106.89640859619773)"
16,2.0,Зүтгэл-энх,Zutgel-enkh,B.Khulan,96053363,П.Отгонцэрэн,175,{5CE3B139-73B6-4147-8CF1-69A6AC3B3830},,,,,,11898029.491474584,6094498.912633048,"11898029.491474584,6094498.912633048","(47.9256762898085, 106.88181743096436)"
17,2.0,Монора Миска,Monora Miska,D.Javzmaa,99002552,П.Отгонцэрэн,324,{8BABDB59-8ED6-4D5E-B2E4-0611270F4026},,,,,,11900111.939634496,6091911.278085601,"11900111.939634496,6091911.278085601","(47.910097530140526, 106.9005243810687)"
18,2.0,НЧД,N.Ch.D,Ts.Altamtsetseg,99099067,П.Отгонцэрэн,221,{D41EFBE7-1387-4A26-BE28-1A2D3572E25D},,,,,,11904674.08547291,6094130.099052791,"11904674.08547291,6094130.099052791","(47.92345614770928, 106.941506834419)"
19,2.0,Марс-1,Mars-1,R.Munkhtsetseg,99034233,П.Отгонцэрэн,344,{0E7C444D-CEE8-4A2E-A965-2DC8CDFEDECD},,,,,,11903086.999637185,6096200.622427985,"11903086.999637185,6096200.622427985","(47.935918814996185, 106.9272497997846)"
20,1.0,Байда,Baida,G.Lkhagvasuren,99088596,П.Отгонцэрэн,201,{AFE569BA-B307-480A-9DAB-943536AE1B19},,,,,,11901316.684720675,6094603.2677178625,"11901316.684720675,6094603.2677178625","(47.9263044573994, 106.91134679031252)"
21,1.0,Наран эс,NAran es,S.Tsevegjav,99113167,П.Отгонцэрэн,9,{1DE99D1D-2068-492A-BFAF-04F8C0BF010E},,,,,,11898084.620465187,6092371.251035944,"11898084.620465187,6092371.251035944","(47.91286712336841, 106.88231266311293)"
22,1.0,НЧД,"N,Ch,D",D.Urtnasan,99099067,П.Отгонцэрэн,15,{AEFACB02-11E8-4900-924B-20137957AFC9},,,,,,11898924.451633511,6092510.944785375,"11898924.451633511,6092510.944785375","(47.91370821927378, 106.88985699485877)"
23,2.0,МИЭК фарм маркет,MIEK,Sh.Khongorzul,99019003,П.Отгонцэрэн,158,{5A3A3231-5F40-4011-AAD5-B238B1B8BA1B},,,,,,11897772.458258538,6093977.712246387,"11897772.458258538,6093977.712246387","(47.9225387991005, 106.87950846229936)"
24,1.0,МОнос далай,Monos dalai,S.Oyunkhuyag,99918035,П.Отгонцэрэн,89,{E3FB152B-E29B-47AD-9AC4-1EAB286BC97C},,,,,,11901042.727033326,6092568.253441844,"11901042.727033326,6092568.253441844","(47.914053270674025, 106.90888578653505)"
25,2.0,Цагаан суврага эс Монос,Tsagaan suvraga es Monos,D.Bayarmaa,99146477,П.Отгонцэрэн,338,{B7ABF954-E374-495A-BC18-88F04420EE9D},,,,,,11902371.736000447,6093254.492999626,"11902371.736000447,6093254.492999626","(47.918184892176036, 106.92082447721401)"
26,1.0,Армон ,Armon,Nomin-Undral,99025599,П.Отгонцэрэн,195,{B44A0984-500D-401F-B20F-C7018D479E6D},,,,,,11901314.233193075,6094178.669903668,"11901314.233193075,6094178.669903668","(47.92374853444884, 106.91132476786542)"
27,2.0,Гурван сайхан,Gurvan saikhan,J.Tamara,"462488,99031832",П.Отгонцэрэн,244,{C90D99BF-8187-42A8-818B-BC238C08454A},,,,,,11908324.394840749,6093604.480818545,"11908324.394840749,6093604.480818545","(47.92029192608936, 106.97429812138795)"
28,2.0,ЭНхнаран хулан,Enkhnaran khulan,L.Tsetsegmaa,99088936,П.Отгонцэрэн,387,{DB20884C-896F-4F89-8834-A883BD3980F5},,,,,,11900800.089948395,6094512.367778104,"11900800.089948395,6094512.367778104","(47.92575728376081, 106.90670614051618)"
29,2.0,Зууннаст,Zuunnast pharm,Kh.Anudari,319976,П.Отгонцэрэн,252,{C3DEC3FE-D434-43AC-91A7-83DFC8526585},,,,,,11904414.928315226,6092710.971788619,"11904414.928315226,6092710.971788619","(47.914912557828075, 106.93917878606163)"
30,1.0,Бейссан,Bessan,P.Sodnomjargal,99085404,П.Отгонцэрэн,3,{BF3B0B3D-7F4A-455A-A375-92334BF951EF},,,,,,11898245.240502298,6092810.627558093,"11898245.240502298,6092810.627558093","(47.91551256278163, 106.88375553745566)"
31,2.0,Ган-эм,Gan-em,L.Dolgor,99293169,П.Отгонцэрэн,152,{CDA4E1F2-17E9-48B3-AD00-68F18F4EECC2},,,,,,11898992.858472187,6093398.378707428,"11898992.858472187,6093398.378707428","(47.91905113861416, 106.89047150394599)"
32,1.0,Монос натурвит,Monos naturvit,B.Nyamkhuu,99895351,П.Отгонцэрэн,95,{0B7427D8-E910-4923-8312-34B9D8A1DF22},,,,,,11902636.595868623,6095077.026990259,"11902636.595868623,6095077.026990259","(47.929156165201256, 106.92320375389136)"
33,2.0,АСЭ,ACE,S.Chimgee,,П.Отгонцэрэн,189,{958C8DAD-B249-449F-A5C3-0E7FA08C4389},,,,,,11899147.591718048,6094702.061165046,"11899147.591718048,6094702.061165046","(47.9268991395677, 106.89186149634317)"
34,1.0,Лабтех,Labtech,G.Munkhzul,99088473,П.Отгонцэрэн,118,{FB11D6A7-CFD8-42B0-BF15-38B70B0AF7A7},,,,,,11900530.337450085,6092862.527750317,"11900530.337450085,6092862.527750317","(47.91582503939998, 106.90428291259458)"
35,2.0,Гамба трейд,Gamba Trade,M.Khad-Erdene,99075372,П.Отгонцэрэн,258,{1B8E0577-BB13-4B49-B5BA-CD3DD4A356FD},,,,,,11905754.99671981,6093119.569932133,"11905754.99671981,6093119.569932133","(47.9173725910491, 106.95121682535766)"
36,2.0,Гашуун булаг фарм,Gashuun bulag pharm,J.Oyunnaran,99638814,П.Отгонцэрэн,264,{1B7F3D8D-A509-436E-B009-253F9A1D479F},,,,,,11903902.166099876,6091063.351599882,"11903902.166099876,6091063.351599882","(47.90499159915204, 106.93457256470997)"
37,2.0,Оточ Тойн,Otoch toin,Ch.Tsetsegsuren,99731795,П.Отгонцэрэн,335,{E6763255-E897-498C-93DF-67A2924F4E69},,,,,,11903002.195765898,6094756.766739943,"11903002.195765898,6094756.766739943","(47.927228434072944, 106.92648799364729)"
38,2.0,Толбот хайтан тун,Tolbot khaitan tun,D.Enkh-Otgon,99969078,П.Отгонцэрэн,381,{F3DAC164-8B52-4A04-B013-94DC95F52E93},,,,,,11900378.251754407,6093440.4427234,"11900378.251754407,6093440.4427234","(47.9193043771765, 106.90291670354533)"
39,2.0,Тулга медикал,Tulga medical,Battulga,88711764,П.Отгонцэрэн,212,{4ADF9078-EC32-4F4A-B867-7A96E060DC4A},,,,,,11898686.50941859,6094397.788602791,"11898686.50941859,6094397.788602791","(47.92506756433905, 106.88771952357476)"
40,2.0,Мөнхийн хийморь Золбоо,Munkhiin khiimori Zolboo,D.Erdenesuvd,96663491,П.Отгонцэрэн,358,{B4360447-28E5-4587-956A-31949B69F041},,,,,,11901096.167919857,6090835.384624563,"11901096.167919857,6090835.384624563","(47.903618772009274, 106.90936585418675)"
41,2.0,Сайхан сүмбэр,Saihan sumber,B.Sainzaya,99054328,П.Отгонцэрэн,235,{D59ADD7B-F693-42E3-85A6-4AEA9158889F},,,,,,11911367.664587133,6092267.535486755,"11911367.664587133,6092267.535486755","(47.91224264332233, 107.0016362786567)"
42,1.0,Алтан удам,Altan udam,J.Rentsenamgalan,95630090,П.Отгонцэрэн,172,{614E5BFE-3711-459E-99B4-B0A4A9DC7ED1},,,,,,11900081.40183822,6093220.065867898,"11900081.40183822,6093220.065867898","(47.9179776256581, 106.90025005537733)"
43,2.0,Доктор тун,Doctor tun,D.Tuyatsetseg,88024016,П.Отгонцэрэн,375,{B0E5E590-94AE-4E72-AD3D-779C98C79C2B},,,,,,11902123.952576244,6090348.23921037,"11902123.952576244,6090348.23921037","(47.900685038886564, 106.9185986008429)"
44,2.0,Борх баянбулаг,Borkh bayanbulag,D.Tseyenregzen,91814299,П.Отгонцэрэн,218,{A8C1E327-89A1-429A-947B-D7CF1157D468},,,,,,11904748.927419567,6093741.261121246,"11904748.927419567,6093741.261121246","(47.921115362102185, 106.94217915106476)"
45,1.0,Төхөм,Tukhum,B.Altantsetseg,"325804,88144563",П.Отгонцэрэн,32,{25ED4B38-CF1E-48C0-ABF0-E74EFD7187D2},,,,,,11903816.919251086,6092325.223680243,"11903816.919251086,6092325.223680243","(47.912589989718064, 106.93380677923805)"
46,2.0,Шинэшила,Shineshila,N.Jambaldorj,99304961,П.Отгонцэрэн,229,{A7DD9C54-16B1-4286-BFFA-F87FFB428982},,,,,,11906123.731404373,6093245.544126746,"11906123.731404373,6093245.544126746","(47.91813101609402, 106.95452922538695)"
47,2.0,Дива ,Diva,E.Hugjil,88092545,П.Отгонцэрэн,327,{DD5D109F-35B2-426F-A723-09BCE5C86073},,,,,,11899634.759824634,6092070.979379342,"11899634.759824634,6092070.979379342","(47.911059141791405, 106.896237801904)"
48,2.0,Царм тэнгэр ,Tsarm tenger,D.Ragchaasuren,,П.Отгонцэрэн,318,{5B6EEB4F-D5E3-49B5-8C83-608BBC8B40AA},,,,,,11903171.591821233,6091696.910689949,"11903171.591821233,6091696.910689949","(47.90880672863043, 106.92800970430307)"
49,2.0,Толбот хайтан,Tolbot khaitan,J.Erdene,,П.Отгонцэрэн,126,{44C1D2BB-7131-4700-9853-7A7B9B7320E8},,,,,,11898167.474820212,6092291.282984154,"11898167.474820212,6092291.282984154","(47.91238562966699, 106.88305695644767)"
50,2.0,Пи Ти Эн ,PTN,D.Janbanenj,99028142,П.Отгонцэрэн,321,{B3A847DD-12C0-4254-A5DE-83235D8D1123},,,,,,11901245.942018328,6092160.460049685,"11901245.942018328,6092160.460049685","(47.91159792520249, 106.91071129780497)"
51,1.0,Ач фарм-24,Ach pharm-24,G.Battsetseg,"456612,99181444",П.Отгонцэрэн,26,{47CC5B6C-973C-4C22-B764-A121094D20C2},,,,,,11904801.971941082,6092882.220318921,"11904801.971941082,6092882.220318921","(47.915943602383074, 106.94265565810892)"
52,1.0,Өлзий дэн фарм эс,Ulzii den pharm es,A.Erdenetsetseg,99023396,П.Отгонцэрэн,12,{15D8AE6A-A52D-407F-ABC2-8E2D0813CF7A},,,,,,11898430.505447904,6092413.007091773,"11898430.505447904,6092413.007091773","(47.91311853796524, 106.88541980077815)"
53,1.0,Ааг фарм,Aag pharm,E.Udval,"70152328,99052328",П.Отгонцэрэн,35,{5F17E017-9F91-4720-B270-5C37F06EEB1F},,,,,,11904572.751175117,6094599.342529961,"11904572.751175117,6094599.342529961","(47.92628082978773, 106.94059653293388)"
54,2.0,Лабтех,Labtekh,G.Munkhzul,998861317,П.Отгонцэрэн,129,{3209DEFA-6BEB-41BC-87AB-7C731ECD3764},,,,,,11898834.210278854,6092532.884306605,"11898834.210278854,6092532.884306605","(47.9138403158638, 106.88904634297728)"
55,2.0,Ворлд Куалити,World quality,L.Uurtsaikh,96651368,П.Отгонцэрэн,390,{7305391E-EB3F-4B68-B494-F26602964358},,,,,,11900639.514322309,6099345.875519718,"11900639.514322309,6099345.875519718","(47.95484463161355, 106.90526366512447)"
56,2.0,Евро фарм,Euro pharm,S.Selenge,99146814,П.Отгонцэрэн,155,{BE47E70B-A5BB-4017-AB22-BDAC3EDC9ACF},,,,,,11898991.209705066,6093381.0759376,"11898991.209705066,6093381.0759376","(47.91894697015589, 106.89045669281894)"
57,1.0,Амарбаясгалант,Amarbayasgalant,Gundegmaa,99925700,П.Отгонцэрэн,63,{FDCCC8AA-CCA8-44E7-8FE8-B38E91BC9AA5},,,,,,11898103.697048588,6094294.975348427,"11898103.697048588,6094294.975348427","(47.92444866308423, 106.88248403097731)"
58,2.0,Юуникс таун.ХХК,Yuniks town.llc,Ts.Minjinnorov,88241944,П.Отгонцэрэн,255,{C9A229ED-CAEC-45EE-830E-33EFF0D0650F},,,,,,11905319.396568313,6091720.122622223,"11905319.396568313,6091720.122622223","(47.9089464995612, 106.94730376261913)"
59,1.0,Жи Эн Пик,JNpic,D.Erdenetsetseg,99127596,П.Отгонцэрэн,6,{2AFD4AF1-A464-44A3-BD59-0F143E7C4FFB},,,,,,11898670.129986351,6092739.895181227,"11898670.129986351,6092739.895181227","(47.91508669978038, 106.88757238463151)"
60,1.0,Хорго эс,Khorgo es,G.Nanjidmaa,99890499,П.Отгонцэрэн,43,{28CAE491-667B-4EC7-9EB6-4FBC5CD49AEB},,,,,,11905004.698629145,6093935.322217109,"11905004.698629145,6093935.322217109","(47.92228361378611, 106.94447678293277)"
61,1.0,Гашуун булаг,Gashuun bulag,Kh.Narantsatsral,99066501,П.Отгонцэрэн,55,{2DAB6FB4-22CA-4A32-A179-11EE4932C9D1},,,,,,11897851.905073995,6094596.135179073,"11897851.905073995,6094596.135179073","(47.92626152317755, 106.88022214518534)"
62,2.0,Батбямба ,Batbyamba,Kh.Guldana,99058157,П.Отгонцэрэн,241,{615BFCE7-031D-4233-B0AD-AFF3C41768BE},,,,,,11911749.399462223,6095985.976178539,"11911749.399462223,6095985.976178539","(47.93462697935619, 107.00506546138445)"
63,1.0,Инжирт,Injer,D.Khashgerel,99084265,П.Отгонцэрэн,98,{870486B9-FDFF-49CE-B0CB-722B3BBD514F},,,,,,11900948.531922966,6090576.602262648,"11900948.531922966,6090576.602262648","(47.902060329129725, 106.90803961746181)"
64,2.0,Ариун тан,Ariun tan ,A.Oyuntsetseg,99047425,П.Отгонцэрэн,341,{EE4572E2-2E7A-4C92-A98F-F35A414A10E6},,,,,,11902480.302827913,6095258.553061239,"11902480.302827913,6095258.553061239","(47.93024878671571, 106.92179974961863)"
65,2.0,Арвижих халиун,Arvijikh khariun,D.Amgalan,98981803,П.Отгонцэрэн,347,{42552B5F-9744-49F7-89C7-989646149378},,,,,,11902111.39053718,6100895.968975081,"11902111.39053718,6100895.968975081","(47.964169403253564, 106.91848575412598)"
66,1.0,Саргун-Асрангүй,Sargun-Asrangui,N.Munkhbayar,88079479,П.Отгонцэрэн,49,{BEEFCC4F-C2EC-4D18-AC3B-509789349E05},,,,,,11906329.648330221,6091969.389827271,"11906329.648330221,6091969.389827271","(47.910447441257645, 106.95637900860443)"
67,1.0,Бэрээмэг,Bereemeg,G.Shurentseren,99807877,П.Отгонцэрэн,198,{A699CE14-323C-463B-A91C-BE33CE786281},,,,,,11900389.400584538,6094104.59300383,"11900389.400584538,6094104.59300383","(47.92330260576992, 106.9030168551904)"
68,2.0,Алое ,Aloe,S.Munkhbat,96669806,П.Отгонцэрэн,190,{FC2ABD24-B1A8-4DBA-A89D-20969CB232AD},,,,,,11898409.156283695,6095062.104368984,"11898409.156283695,6095062.104368984","(47.929066343594044, 106.88522801797303)"
69,2.0,Мон евро фарм,Mon euro pharm,Sh.Otgonsuren,99292384,П.Отгонцэрэн,213,{BB90C8D8-2414-451F-9FC3-C53F6A8B0C1E},,,,,,11898495.509388598,6094205.398512088,"11898495.509388598,6094205.398512088","(47.92390943458314, 106.88600374111267)"
70,1.0,Чин ван,Chin van ,B.Davaajav,88010050,П.Отгонцэрэн,167,{D905908B-B0AC-44A6-A089-81E3471A9F5E},,,,,,11901168.175354179,6093508.612313454,"11901168.175354179,6093508.612313454","(47.91971477684619, 106.91001270797496)"
71,2.0,Си энд Эл,C and L,D.Batdelger,96687798,П.Отгонцэрэн,353,{5963ED89-6326-4573-A9E3-3860B9E88529},,,,,,11901078.130584897,6090587.248379234,"11901078.130584897,6090587.248379234","(47.902124443252276, 106.90920382204995)"
72,2.0,Түвшин орд,Tuvshin ord ,D.GUndsambuu,99271171,П.Отгонцэрэн,359,{F0DB3947-F985-4B3B-9F9B-EE2C5FC671AF},,,,,,11902103.730304362,6090457.996547171,"11902103.730304362,6090457.996547171","(47.9013460443964, 106.91841694108378)"
73,2.0,Баян нинж,Bayan ninj,S.Naranchuluun,99297117,П.Отгонцэрэн,336,{731450D7-A04F-432A-ABB7-10EFE7DA6026},,,,,,11904228.945529027,6103614.618160016,"11904228.945529027,6103614.618160016","(47.980519696550466, 106.93750807426738)"
74,2.0,Зайг гол,Zaig gol,O.Altankhhundaga,"99048141,99898998",П.Отгонцэрэн,330,{112C65BC-0F16-4C45-9475-3C0588C42476},,,,,,11899573.349363456,6091947.139469849,"11899573.349363456,6091947.139469849","(47.91031346435461, 106.89568614234517)"
75,2.0,Еврофарм,Europharm,O.Munkhdulam,91881812,П.Отгонцэрэн,307,{3396DCF7-4863-4A42-A094-7946042E3521},,,,,,11903247.130628789,6093102.953014288,"11903247.130628789,6093102.953014288","(47.9172725484074, 106.92868828095678)"
76,2.0,Амин-эрдэнэ,Amin-Erdene,D.Damdinsuren,91164400,П.Отгонцэрэн,236,{4236C7C7-4C56-41DB-B064-26821D909D71},,,,,,11910455.741533324,6094201.237930783,"11910455.741533324,6094201.237930783","(47.923884388864295, 106.99344433448493)"
77,2.0,Өлзийдөл,Ulziidul,D.Ariunaa,99268146,П.Отгонцэрэн,259,{647CF23B-4110-4AA7-AC33-7904F648A151},,,,,,11907368.979935918,6091630.910749418,"11907368.979935918,6091630.910749418","(47.90840930712817, 106.9657154832711)"
78,2.0,Нахиа энх,Nakhia enkh ,B.Jigjidmaa,98650067,П.Отгонцэрэн,382,{9FAA2F9F-AAC8-45E2-BB46-1C2E9C21B36D},,,,,,11899671.273764925,6090362.348318284,"11899671.273764925,6090362.348318284","(47.90077001042679, 106.89656581221047)"
79,2.0,Хангай ханы Хангарьд,Khangai khanii khangarid ,P.Baatar,99040991,П.Отгонцэрэн,267,{0BD7B152-B582-4B87-9A4E-6F159E7ED5CB},,,,,,11911513.891123913,6092102.402580488,"11911513.891123913,6092102.402580488","(47.91124834865158, 107.00294985398604)"
80,2.0,Шинэс фарм,Shines pharm,E.Tugsbayar,,П.Отгонцэрэн,313,{D57A070B-A614-49CD-9AB2-FA131DA5BCD8},,,,,,11903163.651571957,6093063.642147635,"11903163.651571957,6093063.642147635","(47.917035875410505, 106.92793837583022)"
81,2.0,Алтайн увидас,Altain uvidas,I.Tsetsegbadam,88111170,П.Отгонцэрэн,230,{FBEC5D68-F163-4693-BC76-0B8000F7D792},,,,,,11904924.583205985,6091722.488589033,"11904924.583205985,6091722.488589033","(47.90896074623775, 106.94375709384158)"
82,1.0,Монос биоген эс,Monos biogen es,U.Tsengel,95147156,П.Отгонцэрэн,27,{7DECA14D-132C-4F48-AC17-36540FE4A185},,,,,,11904872.583499288,6092807.736351894,"11904872.583499288,6092807.736351894","(47.91549515557797, 106.94328997252863)"
83,1.0,Ганга-Ц,Ganga-Ts,G.Tsetseglen,99134059,П.Отгонцэрэн,21,{647878F8-CB66-44EA-84E5-904482C98546},,,,,,11899007.31993978,6094783.122889908,"11899007.31993978,6094783.122889908","(47.92738708142181, 106.89060141351969)"
84,2.0,Гомбын тал,Gombiin tal,B.Bolorkhishig,99833301,П.Отгонцэрэн,127,{05977A29-E53E-4EA1-A1EA-D28657362BDC},,,,,,11898419.036308771,6092005.742836967,"11898419.036308771,6092005.742836967","(47.91066633423804, 106.88531677174836)"
85,1.0,Юуниф,Yunip,L.Byambajav,96679293,П.Отгонцэрэн,121,{45513065-2E40-4BD9-8B30-9072634320E4},,,,,,11899657.068224374,6092729.393749728,"11899657.068224374,6092729.393749728","(47.91502347283298, 106.89643820166849)"
86,2.0,Луст,Lust,N.Amarjargal,91910133,П.Отгонцэрэн,319,{45E43799-53A0-475B-9A6B-904449A891DC},,,,,,11901194.321382064,6092069.405329543,"11901194.321382064,6092069.405329543","(47.91104966403035, 106.91024758173964)"
87,2.0,Дениро,Deniro,D.Norovkhuu,91716334,П.Отгонцэрэн,322,{89EB6248-73C9-4D6D-9C6B-DCD05435C9F8},,,,,,11900168.092072196,6091732.366668454,"11900168.092072196,6091732.366668454","(47.90902022708152, 106.90102880699898)"
88,2.0,Бүтээгч плазма,Buteegch plazma,J.Alimaa,99042132,П.Отгонцэрэн,370,{9510C884-42C9-4DF8-AE88-E3F7DBFDFDA8},,,,,,11897888.547458159,6090460.689400692,"11897888.547458159,6090460.689400692","(47.90136226180312, 106.88055130932277)"
89,1.0,Тун эрдэнэ,Tun erdene,L.Sugartseren,99113841,П.Отгонцэрэн,173,{5DC5085E-14DE-4862-8C28-1161AE91762B},,,,,,11900105.794022955,6093310.1838351125,"11900105.794022955,6093310.1838351125","(47.91852017381143, 106.90046917410093)"
90,2.0,Бодизур,Bodizur,O.Uranchimeg,91918908,П.Отгонцэрэн,250,{556A1A82-3B55-4B35-A95B-69D88B4EF5AF},,,,,,11904800.199536067,6092299.922254245,"11904800.199536067,6092299.922254245","(47.912437647582934, 106.94263973632377)"
91,2.0,Амин шүүдэр,Amin shuuder,Ya.Dashzeveg,99199695,П.Отгонцэрэн,156,{0E9EFFA6-FC36-4715-8574-4F8136054D2A},,,,,,11897849.694831746,6093246.375851343,"11897849.694831746,6093246.375851343","(47.918136023437896, 106.88020229024141)"
92,2.0,ТЕСО,Teso,T.Emkhzul,98098668,П.Отгонцэрэн,130,{FF400AC9-383D-494A-8634-85796EF8204D},,,,,,11899110.978629261,6091704.008962522,"11899110.978629261,6091704.008962522","(47.9088494710046, 106.8915325953706)"
93,1.0,Астра фарм,Astra pharm,D.Batbuyan,990958335,П.Отгонцэрэн,38,{8AB3423A-EA91-45F3-922B-32C85D11D00E},,,,,,11905283.451610455,6093546.70648902,"11905283.451610455,6093546.70648902","(47.91994411283596, 106.94698086356883)"
94,2.0,Түвшин фарм,Tuvshin pharm,Kh.Battsetseg,99003700,П.Отгонцэрэн,350,{8DA5208B-298E-420F-868A-09EEBC96C5B0},,,,,,11906518.951462476,6104091.542276479,"11906518.951462476,6104091.542276479","(47.98338744358838, 106.9580795475748)"
95,1.0,Эверст,Everest,N.Boldbaatar,96601213,П.Отгонцэрэн,101,{13F758DD-B411-417A-AC61-AE146785577E},,,,,,11900083.893665526,6090223.584676781,"11900083.893665526,6090223.584676781","(47.89993430586579, 106.90027243984287)"
96,2.0,Эдванс Хелд,Edones held,E.Odontuya,99118704,П.Отгонцэрэн,256,{C2BBCB9C-F31A-4CE2-939F-554FD943D93D},,,,,,11904968.014402412,6092405.00879129,"11904968.014402412,6092405.00879129","(47.91307038002738, 106.94414724291717)"
97,1.0,Тавин ус бзс,Tavin us bzs,B.Kherlentuul,88075357,П.Отгонцэрэн,44,{814E088E-44C7-4956-B9F9-52A3F3F55AAA},,,,,,11905628.089331206,6093222.788822651,"11905628.089331206,6093222.788822651","(47.91799401907697, 106.95007679688916)"
98,1.0,Шанхат,Shankhat,E.Udval,99062792,П.Отгонцэрэн,7,{29F39345-9B1E-4D60-B14B-5CEF9C13C15E},,,,,,11897789.713491512,6092388.80473729,"11897789.713491512,6092388.80473729","(47.912972814935124, 106.87966346869447)"
99,1.0,Монос төв,Monos center,B.Narantsetseg,99139668,П.Отгонцэрэн,193,{DE2C3C57-3FC0-4121-B2D7-29B242534E66},,,,,,11900947.966746317,6094028.659440438,"11900947.966746317,6094028.659440438","(47.922845496343825, 106.90803454039359)"
100,2.0,Пижидиэй,Pidgey,M.Purevsuren,93033615,П.Отгонцэрэн,342,{677DD863-85D0-4A3E-89D7-8A728FAF4228},,,,,,11902602.110068565,6095686.312499639,"11902602.110068565,6095686.312499639","(47.932823417409395, 106.92289396267857)"
101,2.0,Монос,Monos,Ch.Munkhbayar,99893655,П.Отгонцэрэн,150,{5EF558B3-3390-4E3E-AC77-343D64FEC790},,,,,,11898991.252365163,6093450.731751497,"11898991.252365163,6093450.731751497","(47.919366320162354, 106.89045707604112)"
102,2.0,Хажуу худаг,Khajuu khudag,L.Chuluunbat,99863347,П.Отгонцэрэн,393,{B9364F76-5351-4EFC-BC67-8FC3EF895A91},,,,,,11898718.312353153,6097431.162500826,"11898718.312353153,6097431.162500826","(47.94332412408993, 106.88800521419674)"
103,1.0,Монос баянгол,Monos bayangol,Ts.Gantsetseg,99243356,П.Отгонцэрэн,50,{20050E64-0076-49C0-B3F1-18A72209DB08},,,,,,11903898.40640306,6091117.794407874,"11903898.40640306,6091117.794407874","(47.90531945074822, 106.93453879077882)"
104,1.0,Нью ремеди,New remady, Bayarjargal, ,П.Отгонцэрэн,1,{8091FEA7-D731-4D28-A4C2-18A590A59C28},,,,,,11898349.143431481,6093728.590723069,"11898349.143431481,6093728.590723069","(47.92103908513386, 106.88468891334915)"
105,2.0,Уранханд,Urankhand,M.Uranchimeg,99091507,П.Отгонцэрэн,356,{B73BD123-805E-4E85-A66E-8D749FCD1C2A},,,,,,11898860.145450808,6090363.2855807245,"11898860.145450808,6090363.2855807245","(47.90077565504753, 106.88927932259092)"
106,1.0,Монос Баянгол,Monos bayangol,G.Oyun-erdene,88088886,П.Отгонцэрэн,24,{DF108851-EB78-48D2-9D75-7B9117D240A1},,,,,,11898019.68360919,6093996.556278797,"11898019.68360919,6093996.556278797","(47.922652238588114, 106.88172932541046)"
107,1.0,Энэрэх заяа эс,Enerekh zaya es,Bud,99038852,П.Отгонцэрэн,47,{200ED5F8-917D-47F1-800A-168117605723},,,,,,11909507.942276737,6093589.770408372,"11909507.942276737,6093589.770408372","(47.92020336664016, 106.98493010890023)"
108,2.0,Евро фарм ,Euro pharm,P.Tsogttuya,,П.Отгонцэрэн,379,{F69C3F2E-6047-4815-850E-D2E3AB77A1B2},,,,,,11900049.405374087,6093214.475286562,"11900049.405374087,6093214.475286562","(47.917943967814246, 106.89996262624965)"
109,2.0,Монос цагаан суврага,Monos tsagaan suvraga,D.Bayarmaa,,П.Отгонцэрэн,239,{F9E596C6-64F5-46F5-8758-79741B28CC46},,,,,,11911148.71076437,6092927.328887446,"11911148.71076437,6092927.328887446","(47.91621518636948, 106.99966938300166)"
110,2.0,Халиун байгаль ,Khaliun baigali ,L.Ulambayar,99168322,П.Отгонцэрэн,216,{211E110B-684F-4EEE-82D6-A3628750AF4E},,,,,,11905308.243763389,6094428.029349142,"11905308.243763389,6094428.029349142","(47.92524960206438, 106.94720357526789)"
111,1.0,Медвико,Medviko,B.Udval,88180465,П.Отгонцэрэн,93,{8344B79A-923A-47CB-AA42-54E97430E9DD},,,,,,11903193.676286079,6093864.031638237,"11903193.676286079,6093864.031638237","(47.92185444613918, 106.9282080924262)"
112,1.0,Гүнтулга,Guntulga,D.Batchimeg,"99016677,",П.Отгонцэрэн,164,{ECB186E8-A52D-4CB6-A361-CEBAC666B282},,,,,,11900753.840692667,6093459.556991137,"11900753.840692667,6093459.556991137","(47.919419450650594, 106.9062906763832)"
113,2.0,Денто фарм,Dento pharm,G.Erdenetsetseg,99819905,П.Отгонцэрэн,310,{4D5304AB-1DAB-4F77-8D39-2926DB186DBE},,,,,,11902699.265017688,6092918.336057717,"11902699.265017688,6092918.336057717","(47.91616104358697, 106.92376672043584)"
114,2.0,Монос сансар,Monos sansar,B.Battsetseg,99660325,П.Отгонцэрэн,233,{9B142D8F-A9D1-4B4A-BD83-972D9F57E3DD},,,,,,11904850.764028681,6093723.793210249,"11904850.764028681,6093723.793210249","(47.92101020363386, 106.94309396488926)"
115,2.0,Вондерлак,Wonderluck,B.Khishigmaa,99280898,П.Отгонцэрэн,333,{B9E4F242-F3DE-460F-947B-824360BEDFB9},,,,,,11901857.693273254,6093915.192770176,"11901857.693273254,6093915.192770176","(47.92216243533878, 106.91620675282874)"
116,1.0,Дашмаг,Dashmag,L.Khonkhor,88002638,П.Отгонцэрэн,30,{A4C8D44F-2DDC-4EA2-B0BB-706F7818BDE0},,,,,,11903900.57809104,6092841.23542008,"11903900.57809104,6092841.23542008","(47.91569684443162, 106.93455829938387)"
117,1.0,Төхөм,Tukhum,N.Suvd,99169555,П.Отгонцэрэн,18,{4E8B973E-A1D7-45DD-AED6-ABC4891F8319},,,,,,11898258.693610897,6094148.010323834,"11898258.693610897,6094148.010323834","(47.92356397014578, 106.88387638878639)"
118,2.0,Цасны хачир ,Tsasnii khachir,D.Altantsetseg,88819486,П.Отгонцэрэн,316,{AC869B1C-B551-4BB1-B763-D78F454DFD53},,,,,,11902639.525937809,6092410.57241183,"11902639.525937809,6092410.57241183","(47.91310387871011, 106.92323007515068)"
119,1.0,Мэрц,Merts,D.Kalima,99196857,П.Отгонцэрэн,170,{00F1002C-2A95-4B04-BA66-C9204ED345E6},,,,,,11899713.508497363,6092823.23565649,"11899713.508497363,6092823.23565649","(47.91558847280793, 106.89694521326716)"
120,2.0,Аж богд,Aj bogd,R.Myagmarjav,98994313,П.Отгонцэрэн,224,{D02D3C10-A9F1-414E-939B-95ECFF197B0E},,,,,,11906590.849037267,6093566.886509504,"11906590.849037267,6093566.886509504","(47.92006560094303, 106.95872541447807)"
121,2.0,Анир сананд,Anir sanand,J.Erdenetsetseg,99001050,П.Отгонцэрэн,124,{57E3DFB5-30B3-4462-B784-0ED86E355293},,,,,,11897663.966402229,6092359.73173146,"11897663.966402229,6092359.73173146","(47.91279776503914, 106.87853386337211)"
122,2.0,Тун-энх,Tun-enkh,M.Jargal,992972,П.Отгонцэрэн,227,{C8B27A87-3D15-41E1-83EA-17B7E32BEDB3},,,,,,11906790.84785927,6093089.448785253,"11906790.84785927,6093089.448785253","(47.91719124565753, 106.96052203446418)"
123,2.0,Зуун үндэс ХХК Гэви,Zuun undes llc. Gevi,T.Lkhagvadulam,"99191699,365890",П.Отгонцэрэн,153,{BA2311D1-B971-456D-8D3A-0FFEFBDF6DB7},,,,,,11898976.68681852,6093574.455995522,"11898976.68681852,6093574.455995522","(47.92011117081963, 106.8903262315094)"
124,2.0,Фармалогик,Pharmalogue,G.Chuluuntsetseg,"99005512, 88995000",П.Отгонцэрэн,204,{0566CF2A-5200-4474-A313-21B3FCB77049},,,,,,11898878.30111277,6092819.430737849,"11898878.30111277,6092819.430737849","(47.91556556441072, 106.88944241767724)"
125,1.0,Юнимед,Yunimed,Ts.Ulam-mandakh,91914645,П.Отгонцэрэн,10,{E27D1EF6-2CE2-4616-B3FF-44A03CB0C7BF},,,,,,11898304.805129794,6091864.640764211,"11898304.805129794,6091864.640764211","(47.90981670880901, 106.88429061560838)"
126,1.0,Энх энх эс,Enkh enkh es,B.Munkhtsetseg,96666449,П.Отгонцэрэн,61,{14825569-BF7C-4148-B23C-C9E6580DBFB9},,,,,,11898953.677205607,6094337.97315357,"11898953.677205607,6094337.97315357","(47.924707496328494, 106.89011953263979)"
127,1.0,Асгат-Уул,Asgat Uul,T.Sodnomdarjaa,99194927,П.Отгонцэрэн,196,{211F6C33-6D7C-437B-ADB9-C88ADCAB60BA},,,,,,11901280.007668361,6094234.719443478,"11901280.007668361,6094234.719443478","(47.92408593933555, 106.91101731474583)"
128,1.0,Ган хос ,Gan khos,D.Erdenechimeg,"99298809,323163",П.Отгонцэрэн,90,{61AFEEBA-C8D3-472C-9901-4552350A1D31},,,,,,11901316.011334257,6091700.009008858,"11901316.011334257,6091700.009008858","(47.908825385217035, 106.91134074117943)"
129,1.0,Улиастай фарм,Uliastai pharm,E.Baigali,"70112201,99082223",П.Отгонцэрэн,41,{44B3330D-6240-4E19-BB25-5ED2E058678C},,,,,,11905677.738179434,6094373.058469045,"11905677.738179434,6094373.058469045","(47.92491869791751, 106.9505228000812)"
130,2.0,Анар Арома,Anar aroma,S.Munkhtaivan,99088303,П.Отгонцэрэн,339,{3096937A-610A-4064-959C-570795780947},,,,,,11902859.850571133,6093689.964096446,"11902859.850571133,6093689.964096446","(47.920806548576806, 106.92520928500652)"
131,2.0,Элбрус фарм,Elibrus pharm,Ts.Chunag,99194181,П.Отгонцэрэн,253,{11FFDA17-2057-4FD5-9B9E-15A83F962672},,,,,,11926020.629013345,6093445.592980126,"11926020.629013345,6093445.592980126","(47.91933538325131, 107.13326609767397)"
132,1.0,Хүрмэн гранп плаза,Khurmen grand plaza,B.Dashrenchin,70122328,П.Отгонцэрэн,4,{B43E48F6-6A85-4EA6-A1EB-12039792E641},,,,,,11899026.192833975,6092625.013565009,"11899026.192833975,6092625.013565009","(47.914395017125806, 106.8907709516128)"
133,2.0,Мед сервис,Med service,T.Gerelmaa,99112229,П.Отгонцэрэн,147,{66C7B2BF-840A-4E86-8146-E58323B67004},,,,,,11897495.147175776,6094328.337309833,"11897495.147175776,6094328.337309833","(47.92464949169674, 106.87701733445834)"
134,2.0,Лэ Шату ,Le Shatu,S.Erdenetuya,99096065,П.Отгонцэрэн,247,{2AADC6C7-51A9-4AA6-9E2B-FA063556D28B},,,,,,11909300.763325779,6093691.241562351,"11909300.763325779,6093691.241562351","(47.9208142390793, 106.9830689887183)"
135,1.0,Хотой,Khotoi,Ch.Ider,99148076,П.Отгонцэрэн,119,{9244EA43-45ED-48DF-B075-D8E5204836FF},,,,,,11899495.038723655,6092155.603408017,"11899495.038723655,6092155.603408017","(47.911568682405424, 106.89498266589875)"
136,1.0,Анхны нахиа,Ankhnii nakhia,Kh.Sarnai,98009898,П.Отгонцэрэн,96,{F1084ADE-BAAE-4957-9549-E891C66D5CAE},,,,,,11902548.85903843,6094947.189656705,"11902548.85903843,6094947.189656705","(47.92837464861971, 106.92241560053591)"
137,1.0,Хонхондой,Khonkhondoi,B.Tseveenkhuu,99176543,П.Отгонцэрэн,165,{D4B7CFC6-1059-4E21-BC51-1F97D455E2A8},,,,,,11900840.757038241,6093536.210559975,"11900840.757038241,6093536.210559975","(47.91988092495029, 106.90707145919988)"
138,2.0,Тавин ус,Tavin us,D.Enkhsaruul,99175357,П.Отгонцэрэн,142,{CAD848B5-835E-4F65-97B7-5D1DC1347455},,,,,,11897567.408562977,6094414.954443822,"11897567.408562977,6094414.954443822","(47.92517089621442, 106.87766646954408)"
139,2.0,Түшиглэн наран,Tushiglen naran,D.Dulamsuren,,П.Отгонцэрэн,211,{BAA18063-4650-48FC-A83E-8AC1425448A5},,,,,,11898083.736177564,6092355.336923751,"11898083.736177564,6092355.336923751","(47.912771303649656, 106.88230471942204)"
140,2.0,ЭМЖЖ ,EMJJ,D.Tsenee,99611434,П.Отгонцэрэн,305,{5809B91E-605B-4BD0-AF1C-BB9C7E33EA87},,,,,,11903221.334541786,6093054.638293365,"11903221.334541786,6093054.638293365","(47.916981667112765, 106.92845655076454)"
141,2.0,Гол гэсэр,Gol geser,Sh.Jargalsaikhan,99193490,П.Отгонцэрэн,311,{F6C1520F-48D7-4682-B4EC-E2258D8DC7DA},,,,,,11903149.151189273,6093038.511618397,"11903149.151189273,6093038.511618397","(47.916884575261854, 106.92780811667632)"
142,2.0,Тана,Tana,S.Enkhsaihan,99056636,П.Отгонцэрэн,334,{4B012225-BE9C-48C0-9F1E-73EF8ECC2203},,,,,,11901810.864570105,6094871.702862622,"11901810.864570105,6094871.702862622","(47.92792027325228, 106.91578608343102)"
143,2.0,Талын их сондор,Taliin ikh sondor,G.Tserennadmid,"99178610,99076493",П.Отгонцэрэн,357,{B2AA8021-FF26-4059-8267-B40CCCCF22C3},,,,,,11900959.908541668,6089460.637871082,"11900959.908541668,6089460.637871082","(47.89533921481852, 106.90814181536642)"
144,2.0,Сансар,Sansar,Kh.Bakhitan,,П.Отгонцэрэн,234,{E5C4A295-1C43-4FBA-8E5D-552622D72AE1},,,,,,11904915.048476204,6094120.018879071,"11904915.048476204,6094120.018879071","(47.92339546688663, 106.94367144190667)"
145,2.0,Хулжийн бүрд,Khuljiin burd,M.Norolhoo,99009360,П.Отгонцэрэн,374,{6437EAC6-AE5F-4C08-9609-5127EB3F1869},,,,,,11899710.08131789,6088577.086543817,"11899710.08131789,6088577.086543817","(47.89001723486347, 106.89691442639014)"
146,2.0,Гол гэсэр,Gol geser,,91916488,П.Отгонцэрэн,125,{6108BF91-0F9A-4139-8E4B-F639E8DE4DF3},,,,,,11898937.737204393,6090732.654142974,"11898937.737204393,6090732.654142974","(47.90300011263428, 106.8899763411726)"
147,2.0,Биофарм,Biopharm,Ts.Sanjid,"99175788,450592",П.Отгонцэрэн,219,{45DE3871-E002-48E7-9B4F-FD3423E74C08},,,,,,11904685.22905,6093530.00045133,"11904685.22905,6093530.00045133","(47.91984353864412, 106.9416069388752)"
148,2.0,Перфект,Perfect mind,A.Bayrtsetseg,99155598,П.Отгонцэрэн,328,{0E170472-D3DA-4F3F-8F75-DCD5D9006AB2},,,,,,11900298.55570811,6092502.089903351,"11900298.55570811,6092502.089903351","(47.91365490444509, 106.90220078178062)"
149,2.0,Ошин-Эрдэнэ,Oshin-Erdene,P.Mandakhnaran,96001276,П.Отгонцэрэн,265,{134F82A4-304B-4844-A1D4-9EC00684213C},,,,,,11909025.507063644,6092164.312040247,"11909025.507063644,6092164.312040247","(47.91162111878539, 106.98059631964504)"
150,1.0,Батбямба,Batbyamba,Z.Dashzeveg,99171828,П.Отгонцэрэн,19,{615021FF-3FBC-48C8-9F4E-A3B932123A3B},,,,,,11898681.608700024,6094503.073047687,"11898681.608700024,6094503.073047687","(47.92570133365646, 106.88767549967086)"
151,2.0,Хангид фарм,Khangid pharm,M.Kherlen,96059581,П.Отгонцэрэн,317,{57B54F42-F19F-4AB0-8207-19E8D65EF37D},,,,,,11902342.635736365,6092757.813959066,"11902342.635736365,6092757.813959066","(47.91519458485785, 106.92056306509407)"
152,1.0,Эмийн үйлдвэр,Emiin uildver,D.Uranzaya,99099909,П.Отгонцэрэн,171,{9A8EAEA0-5B73-4A34-9B7E-F6DD17E7140D},,,,,,11900009.628055414,6093340.594751625,"11900009.628055414,6093340.594751625","(47.91870325906514, 106.89960530051638)"
153,1.0,Од фарм,Od pharm ,G.Enkhjargal,"454224,91185588",П.Отгонцэрэн,25,{02263720-63ED-4683-BE83-63767684CE66},,,,,,11904595.243286146,6092320.50852492,"11904595.243286146,6092320.50852492","(47.9125615993827, 106.94079858300498)"
154,1.0,Хонгор,Khongor,Sh.Gereltuya,99097255,П.Отгонцэрэн,36,{4C5F14DA-D884-4072-A2A9-9F1B3D892D48},,,,,,11904672.528017951,6094032.803183362,"11904672.528017951,6094032.803183362","(47.922870441200565, 106.94149284356307)"
155,2.0,Ачлал,Achlal,A.Enkhmaa,99112494,П.Отгонцэрэн,391,{BD70164F-9C31-4EC5-BFDE-A8C75DEF7995},,,,,,11901176.935259147,6099705.690482976,"11901176.935259147,6099705.690482976","(47.957009291339546, 106.91009139954015)"
156,2.0,Цагаан үрэл,Tsagaan urel,Kh.Orlogo,99122261,П.Отгонцэрэн,228,{DC333F2B-8C1E-41C8-8CFF-D945A9241BF5},,,,,,11905415.618444838,6093729.124548105,"11905415.618444838,6093729.124548105","(47.92104229881222, 106.94816813844263)"
157,2.0,Өргөө фарм,Urguu pharm,D.Enkhtsetseg,99100985,П.Отгонцэрэн,205,{FCA3DAF7-A1B9-4520-9392-4F0EA185E638},,,,,,11897937.050434595,6093041.623677903,"11897937.050434595,6093041.623677903","(47.91690331166269, 106.88098701897334)"
158,1.0,Хайтан тун,Khaitan tun ,J.Erdene,88099444,П.Отгонцэрэн,13,{F7E1B616-BAD9-471A-A31E-C8BE612522AF},,,,,,11898237.889517099,6092254.721949523,"11898237.889517099,6092254.721949523","(47.912165491413774, 106.88368950243206)"
159,1.0,Оригфарм,Origpharm,Enkhbuyant,99192710,П.Отгонцэрэн,42,{00D1754A-9FF7-4BE3-BA9F-6F487D7C72D5},,,,,,11905719.940100687,6094539.701448335,"11905719.940100687,6094539.701448335","(47.92592181983374, 106.95090190639)"
160,2.0,Тулга батт.ХХК,Tulga batt.llc,S.Sainbileg,88010062,П.Отгонцэрэн,254,{8FE8DF9A-099B-482B-83A5-D18FFBEADF31},,,,,,11906449.106327875,6091694.802878825,"11906449.106327875,6091694.802878825","(47.90879403640156, 106.95745211805547)"
161,2.0,Даш-2,Dash-2,Ts.Dashzeveg,9917828,П.Отгонцэрэн,242,{12C21293-30C5-4C39-952E-4FDBF6C9AD24},,,,,,11911842.708598662,6096031.307220303,"11911842.708598662,6096031.307220303","(47.93489980421356, 107.00590367161857)"
162,1.0,Монос туул,Monos tuul,Ts.Gantsetseg,99243356,П.Отгонцэрэн,5,{569EA6E4-9718-4A6A-A36A-BFE1A982E4FC},,,,,,11897494.415606964,6092848.0214444725,"11897494.415606964,6092848.0214444725","(47.91573770115828, 106.8770107626639)"
163,1.0,Мөнхжил,Munkhjil,D.Namjilsuren,99659367,П.Отгонцэрэн,56,{CC630DA9-EF8D-4560-A2C2-98C66F961181},,,,,,11898037.023704905,6094534.229449899,"11898037.023704905,6094534.229449899","(47.92588888097184, 106.88188509414056)"
164,1.0,Монос гэсэр,Monos geser,B.Davaajav,99145493,П.Отгонцэрэн,199,{BF961B67-BE8E-4625-A744-4D024FF354C3},,,,,,11900271.228083959,6094038.111329906,"11900271.228083959,6094038.111329906","(47.922902395615885, 106.90195529355607)"
165,2.0,Ариг тун,Arig tun,G.Urtnasan,99079300,П.Отгонцэрэн,348,{0E3D8693-D109-4D3E-9713-3730785EEC23},,,,,,11902369.04843334,6101159.2755203415,"11902369.04843334,6101159.2755203415","(47.965753187883145, 106.92080033438792)"
166,2.0,Жамьяанмядаг туул,Jamyanmyadag tuul,D.Tuya,,П.Отгонцэрэн,248,{B6B3B578-52F7-46CC-A492-0D284D00A319},,,,,,11909524.880542055,6093821.103609546,"11909524.880542055,6093821.103609546","(47.921596018675245, 106.98508226792646)"
167,1.0,Монос нефрамон эс,Monos neframon,B.Daariimaa,99790692,П.Отгонцэрэн,99,{0C987AF5-D1C7-4327-8E4A-A15DB9010A42},,,,,,11900961.659297608,6089507.525105641,"11900961.659297608,6089507.525105641","(47.895621619939554, 106.90815754267462)"
168,2.0,Монос Ачлал,Monos Achlall,Ch.Tsetsegsuren,99121522,П.Отгонцэрэн,148,{890E7DA1-5057-4149-AA36-0B979DD49A8F},,,,,,11898083.023538085,6094086.939680437,"11898083.023538085,6094086.939680437","(47.92319633559372, 106.88229831767269)"
169,2.0,Хонгор алтай ,Khongor altai,Ts.Gantsetseg,,П.Отгонцэрэн,262,{6EA4474B-8A37-4D8D-A115-69D24D9EEA16},,,,,,11911608.333821746,6095087.996076853,"11911608.333821746,6095087.996076853","(47.92922218976123, 107.0037982471754)"
170,1.0,Шинэст,Shinest ,Sh.Dashmaa,99082242,П.Отгонцэрэн,168,{19B7953F-B1DB-472D-8233-B31A571C1B17},,,,,,11900781.333630271,6093641.084479013,"11900781.333630271,6093641.084479013","(47.920512286384785, 106.90653764964372)"
171,2.0,Их шүүдэргэнэ Ариунаа,Ikh shuudergene Ariunaa,T.Ariunaa,96663530,П.Отгонцэрэн,191,{9AD69D1C-2DF9-4448-8476-EECABA3FFF1B},,,,,,11897641.71259049,6094769.964435562,"11897641.71259049,6094769.964435562","(47.92730787591202, 106.87833395397995)"
172,1.0,Тавин ус,Tavin us,Ts.Emkhtuya,99175357,П.Отгонцэрэн,116,{8E9AC7BB-ACD5-43B2-81C7-0116D0FCF25B},,,,,,11900129.411162877,6092814.0042542685,"11900129.411162877,6092814.0042542685","(47.91553289298725, 106.90068133047853)"
173,2.0,Богд ар оол,Bogd ar ool,G.Ganchimeg,326650,П.Отгонцэрэн,377,{765D49D4-706A-4E2B-8511-F53CFADAAAF5},,,,,,11900229.312545476,6093414.545494464,"11900229.312545476,6093414.545494464","(47.91914846788673, 106.90157875986746)"
174,2.0,Анар эсс,Anar es,B.Enkhtsolmon,99166436,П.Отгонцэрэн,354,{70C85A2B-213E-4772-8C3A-FA3F46868233},,,,,,11901164.461428199,6090872.911782876,"11901164.461428199,6090872.911782876","(47.90384476470911, 106.90997934521023)"
175,2.0,Л-2,L-2,Z.Dashzeveg,99792532,П.Отгонцэрэн,331,{42B6356B-FF46-4968-AFD4-F610A4F1910D},,,,,,11902076.47739608,6094341.756038262,"11902076.47739608,6094341.756038262","(47.92473026804089, 106.91817212404332)"
176,1.0,Ангел,Angel,G.Munkhtsetseg,"99196857,325758",П.Отгонцэрэн,162,{36843088-8260-42F1-881A-487CC6F366D7},,,,,,11900535.346348431,6093393.719261078,"11900535.346348431,6093393.719261078","(47.91902308721023, 106.90432790829396)"
177,2.0,Өлзий дэн,Ulzii den,A.Erdenetsetseg,99023396,П.Отгонцэрэн,308,{1F0492FB-B640-4FC9-88D2-85A2D4FD0F96},,,,,,11902698.313096957,6092924.056562264,"11902698.313096957,6092924.056562264","(47.91619548481425, 106.92375816918641)"
178,2.0,Очир энх тан,Ochir enkh tan,B.Oyuntugs,99886498,П.Отгонцэрэн,185,{525E1537-FDD0-408A-BAE0-C1D85EEB2C0B},,,,,,11897323.655555068,6093485.287881546,"11897323.655555068,6093485.287881546","(47.91957435772138, 106.87547679901853)"
179,2.0,Yes,Yes,M.Mendbayar,99056817,П.Отгонцэрэн,231,{CC1C890E-0A89-470D-AC9F-4113C6F5D242},,,,,,11905224.127988027,6092735.278950954,"11905224.127988027,6092735.278950954","(47.915058906422026, 106.94644795040146)"
180,2.0,Мөнгөн тооройт,Mungun tooroit,D.Altantsetseg,99981601,П.Отгонцэрэн,268,{5426FC6A-5297-44BE-A54B-642967848B3A},,,,,,11907855.059911696,6093542.876438861,"11907855.059911696,6093542.876438861","(47.91992105506979, 106.97008201398657)"
181,2.0,Волрос,Volros,G.Ochgerel,95180568,П.Отгонцэрэн,325,{775A54EA-7F10-4272-83EE-FFAC5B921F9A},,,,,,11900632.665350227,6092873.827853782,"11900632.665350227,6092873.827853782","(47.915893073929006, 106.90520213976147)"
182,2.0,Пролианс.ХХК,Prolians.LLC,B.Ulziikhishig,99021091,П.Отгонцэрэн,314,{CB4DB768-5FE4-409F-BA1B-EFFE349B0A90},,,,,,11902393.748864178,6092656.904604256,"11902393.748864178,6092656.904604256","(47.91458702857127, 106.92102222213339)"
183,2.0,Хайтан тун,Khaitan tun,J.Erdene,367300,П.Отгонцэрэн,128,{CA6AF1FA-809C-4555-9F1F-396051E9E9D9},,,,,,11898233.773153668,6092247.661389528,"11898233.773153668,6092247.661389528","(47.91212297885075, 106.88365252451021)"
184,1.0,Энэрэлийн тэнгэр,Enereliin tenger,E.Ariunbolor,96708181,П.Отгонцэрэн,122,{8C8AA77A-D0E5-4AED-8B36-3A72DAFD6EC0},,,,,,11900567.551928379,6092324.56959856,"11900567.551928379,6092324.56959856","(47.91258605143977, 106.90461721594099)"
185,1.0,Төгөлдөр ариун жавхлангууд,Tuguldur ariun javkhlanguud,B.Munkhtuya,99082556,П.Отгонцэрэн,22,{48178A39-8A2B-44F7-9FBD-BA863EA7688A},,,,,,11897462.474974228,6093767.803931305,"11897462.474974228,6093767.803931305","(47.92127515190782, 106.87672383507818)"
186,2.0,Барагшун,Baragshun,O.Tsevel,99990884,П.Отгонцэрэн,222,{24FC0347-76C7-402A-9FC3-AE50AFEA6B41},,,,,,11904230.578182938,6092698.9762632325,"11904230.578182938,6092698.9762632325","(47.91484033500103, 106.937522740647)"
187,1.0,Хаш,Khash,G.Terbish,99162981,П.Отгонцэрэн,202,{A49D0096-AAC9-4A20-B3FA-1B32C193803D},,,,,,11899847.258581528,6100299.377883424,"11899847.258581528,6100299.377883424","(47.960580737776525, 106.89814671071572)"
188,2.0,Болор хишиг,Bolor khishig,Ts.Donoi,99093893,П.Отгонцэрэн,225,{35ED024F-1947-4140-A5C4-49DBC558D598},,,,,,11906571.665536804,6093184.536562602,"11906571.665536804,6093184.536562602","(47.91776372269854, 106.95855308616137)"
189,2.0,Календула,Calendula,B.Munkhdelger,,П.Отгонцэрэн,251,{43594257-1032-45C6-8095-D43B91DA89AF},,,,,,11904896.152054507,6092478.787340206,"11904896.152054507,6092478.787340206","(47.91351460054457, 106.94350169246242)"
190,1.0,Алтан мэлмий,Altan melmii,Yi.Duudaam,96657181,П.Отгонцэрэн,39,{8CA9EDAC-14A0-4355-9E3E-E57E83844568},,,,,,11905475.450120663,6093281.594585553,"11905475.450120663,6093281.594585553","(47.918348055092984, 106.94870561553131)"
191,1.0,Баянбүрэн,Bayanburen,J.Rentsen-amgalan,99298445,П.Отгонцэрэн,33,{36880753-DBF0-4D1E-A881-E49866305461},,,,,,11903840.333462361,6093465.409362541,"11903840.333462361,6093465.409362541","(47.919454683584455, 106.9340171126766)"
192,1.0,Сумараз,Sumaraz,B.Bolormaa,99282864,П.Отгонцэрэн,16,{B9C58A5D-E129-4982-9B37-140E6A1906BB},,,,,,11899442.996321369,6092282.988077189,"11899442.996321369,6092282.988077189","(47.91233568514694, 106.8945151610448)"
193,1.0,Цэцэн-Уул,Tsetsen-Uul,U.Bayrzol,99285280,П.Отгонцэрэн,159,{67B3787D-C040-4DCE-953F-DBA7FCD47C05},,,,,,11901165.653008778,6090894.106899628,"11901165.653008778,6090894.106899628","(47.903972403611526, 106.9099900493607)"
194,1.0,Монгол эм Импекс,Mongol M impeks,E.Munkhtsatsral,99019003,П.Отгонцэрэн,88,{48901CFA-A971-45AF-84A7-AC6B490D9FDC},,,,,,11900573.894944632,6092412.025646673,"11900573.894944632,6092412.025646673","(47.91311262866575, 106.90467419622547)"
195,2.0,Төмөр зам,Tumur zam,Sh.Oyunbileg,99109095,П.Отгонцэрэн,208,{7CFA91F3-E7AD-493A-94A7-1B0399479A6D},,,,,,11897507.716756191,6092504.462783097,"11897507.716756191,6092504.462783097","(47.913669191447966, 106.87713024892037)"
196,1.0,Биндэряа алт ерөө,Binderya alt eruu,B.Dejidmaa,99831208,П.Отгонцэрэн,102,{1F18BC17-617F-41C6-AB87-E5030EBDC8FF},,,,,,11899933.063005503,6090131.805934202,"11899933.063005503,6090131.805934202","(47.89938156062598, 106.89891750497075)"
197,2.0,Цагаан уул,Tsagaan uul,Z.Oyunbileg,88663888,П.Отгонцэрэн,337,{E7B92415-B976-402C-B7D3-D2CB00883C79},,,,,,11903236.170902288,6093980.587590399,"11903236.170902288,6093980.587590399","(47.92255610844531, 106.92858982805852)"
198,2.0,АЮН,AYUN,B.Myagmarsuren,99775395,П.Отгонцэрэн,351,{B1517155-735C-4668-8144-982B6467C84E},,,,,,11905805.04675753,6103874.491126198,"11905805.04675753,6103874.491126198","(47.982082333716704, 106.95166643249622)"
199,2.0,Нөмөрт,Numurt ,Z.Dashzeveg,99137202,П.Отгонцэрэн,388,{E5A5CE99-56A7-4BA5-B04C-9F10277DE8B6},,,,,,11899737.289454628,6100620.571081857,"11899737.289454628,6100620.571081857","(47.96251283740214, 106.89715884124097)"
200,1.0,Жаргал эрдэнэ эс,JArgal erdene S,J.Enkhjargal,55158199,П.Отгонцэрэн,45,{8BBE4346-7396-4AA8-A794-F6888D6FFAB8},,,,,,11905994.705912536,6093310.18509602,"11905994.705912536,6093310.18509602","(47.91852018140258, 106.95337016967336)"
201,2.0,Нахиа,Nakhia,D.Tegshsuren,98650067,П.Отгонцэрэн,245,{09F0B534-F971-4330-80B2-B7C3E806BA0A},,,,,,11909446.163949994,6094016.382602707,"11909446.163949994,6094016.382602707","(47.92277159111926, 106.98437514474884)"
202,2.0,Нахиа фарм,Nakhia pharm,D.Tegshsuren,98650067,П.Отгонцэрэн,345,{D4F55190-A54A-479E-B636-F75CDADE863A},,,,,,11902327.698690748,6095511.357354725,"11902327.698690748,6095511.357354725","(47.93177039971109, 106.92042888333029)"
203,2.0,Хаш,Khash,Erdenetsetseg,99162981,П.Отгонцэрэн,394,{9D760C4B-FEB2-41F4-804C-812375D40013},,,,,,11903681.67754497,6098500.614285824,"11903681.67754497,6098500.614285824","(47.94975915295672, 106.9325918823215)"
204,2.0,Ази фарм,Asia pharm,Ts.Javzan,99001021,П.Отгонцэрэн,309,{0FB7401B-4313-4D17-83A9-E35B1037B30E},,,,,,11901450.678010082,6092131.979543221,"11901450.678010082,6092131.979543221","(47.91142643822203, 106.91255047251097)"
205,1.0,Ази фарм баянзүрх,Asia pharm Bayanzurkh,S.Odonchimeg,70117122,П.Отгонцэрэн,48,{5866421E-F65E-4EB9-8952-CA2336960C84},,,,,,11908829.3457595,6094157.226926504,"11908829.3457595,6094157.226926504","(47.92361945224893, 106.9788341726684)"
206,2.0,Тунамал фарм,Tunamal pharm,O.Tsetsgee,99749884,П.Отгонцэрэн,380,{55B95ABE-41DE-480F-98F2-8856621F8AB8},,,,,,11900110.825895442,6093270.488701447,"11900110.825895442,6093270.488701447","(47.91828119307373, 106.90051437618055)"
207,2.0,Нахиа энх намуун,Nakhia enkh namuun,G.taivanbat,99137427,П.Отгонцэрэн,263,{3EA52668-7A72-4529-910F-AB55704DBB90},,,,,,11903840.643033413,6091030.306405883,"11903840.643033413,6091030.306405883","(47.90479260179806, 106.93401989360068)"
208,1.0,Дарви,Darvi,T.Purevdorj,98008415,П.Отгонцэрэн,94,{88173F70-B615-47D6-94F7-DE75D6E89D9F},,,,,,11902406.662821164,6094687.799891959,"11902406.662821164,6094687.799891959","(47.92681329497651, 106.92113823018278)"
209,2.0,Евро фарм Эрдэнэтолгой ,Euro pharm Erdenetolgoi,B.Khongorzul,91881812,П.Отгонцэрэн,240,{2033CBBA-99B9-4AE3-8EBD-6BC17BC9BF73},,,,,,11910616.105555898,6094180.082796915,"11910616.105555898,6094180.082796915","(47.9237570397569, 106.99488490900993)"
210,1.0,Ахмадын ,Akhmadiin,A.Byambamyagmar,99870982,П.Отгонцэрэн,117,{95BD577A-3301-464F-9F33-0C1680A66E0C},,,,,,11900817.950306164,6092844.0416044295,"11900817.950306164,6092844.0416044295","(47.915713739674956, 106.90686658283983)"
211,1.0,Юу смайл,Yu Smile,S.Khishigdelger,91918104,П.Отгонцэрэн,163,{01068B45-2ECA-425D-9E10-75A35BFDEFC9},,,,,,11900788.918050148,6093202.630227811,"11900788.918050148,6093202.630227811","(47.91787265509763, 106.9066057816467)"
212,2.0,Ганга тагшин,Ganga tagshin,Kh.Narangerel,99193490,П.Отгонцэрэн,257,{9F228CB9-CA6D-4F3C-97A4-1CFB7B7ECBF5},,,,,,11905745.88064714,6093214.648889172,"11905745.88064714,6093214.648889172","(47.917945012981285, 106.95113493428356)"
213,2.0,Хонхон цэцгийн дэлбээ,Khonkhon tsetsgiin delbee,Sh.Todgerel,96670425,П.Отгонцэрэн,332,{C59D6932-88B2-453B-BE2A-12DC475975C0},,,,,,11902040.47266325,6094653.117950489,"11902040.47266325,6094653.117950489","(47.92660452921288, 106.91784868802529)"
214,1.0,Их төгөл,Ikh tugul,S.Byambasuren,99103096,П.Отгонцэрэн,17,{9ACC92C8-D71E-4A7D-872D-257E57CEE75C},,,,,,11899439.899406651,6092113.64779829,"11899439.899406651,6092113.64779829","(47.9113160587191, 106.89448734098654)"
215,1.0,Билэг бат эс,Bileg bat es ,B.Bilegsaikhan,99190988,П.Отгонцэрэн,31,{6D4024E9-DDFB-40E8-8124-785ABAAEDF11},,,,,,11903804.461956251,6093242.215345791,"11903804.461956251,6093242.215345791","(47.91811097537984, 106.93369487345456)"
216,2.0,Эв трейд,Ev trade,G.Narangerel,99751994,П.Отгонцэрэн,326,{01F20ACE-7669-4D0F-81E3-C464664E5FCE},,,,,,11899737.6093539,6092714.8662849385,"11899737.6093539,6092714.8662849385","(47.91493600584433, 106.89716171494504)"
217,2.0,Даян ирээдүй ххк,Dayan ireedui,B.Baigalmaa,"464499,99172067",П.Отгонцэрэн,217,{9DDDB240-63C4-4B6B-AAEB-48A3ED6BA54B},,,,,,11904613.829782113,6094173.080879185,"11904613.829782113,6094173.080879185","(47.923714889731315, 106.94096554833902)"
218,2.0,Шинэ од,Shine od ,S.RIna,81200824,П.Отгонцэрэн,223,{10522E6B-DCEE-42E9-BC47-4B69BDD7271F},,,,,,11906754.396760987,6093703.4431366995,"11906754.396760987,6093703.4431366995","(47.920887694006105, 106.96019458867707)"
219,2.0,МЭИКонцерний фарм-2,MIEKontsernii pharm-2,B.Gulinara,88954649,П.Отгонцэрэн,269,{DAD3DF70-C637-4A40-A9A6-C22B10619BA6},,,,,,11911276.590039877,6092281.7095318595,"11911276.590039877,6092281.7095318595","(47.91232798688478, 107.00081814207877)"
220,1.0,Яргуйжин,Yarguijin,N.Erdenesaikhan,96665147,П.Отгонцэрэн,123,{948071D7-D56A-46F0-8080-07E472E69DA7},,,,,,11899944.871874148,6092320.007039997,"11899944.871874148,6092320.007039997","(47.912558579900114, 106.89902358584267)"
221,2.0,Зууны дэвшил ,Zuunii devshil,T.Tserenpuntsag,99600889,П.Отгонцэрэн,226,{6DE61881-9DE9-4F58-97DA-082366D17421},,,,,,11907364.159584591,6094843.146910039,"11907364.159584591,6094843.146910039","(47.927748386233354, 106.96567218131838)"
222,2.0,Нуган трейд,Nugan trade,M.Khorloo,88112732,П.Отгонцэрэн,203,{DB7F3054-7B78-4D9A-A265-B9F1FE2E3A15},,,,,,11897567.158832874,6092413.497987247,"11897567.158832874,6092413.497987247","(47.9131214936559, 106.87766422618041)"
223,2.0,Батарш,Batarsh,B.Mongolmaa,99194572,П.Отгонцэрэн,154,{0432F517-CC76-4A9C-A6BE-EB775500DA3E},,,,,,11898811.1692156,6093133.96285611,"11898811.1692156,6093133.96285611","(47.91745924391412, 106.88883936158446)"
224,1.0,Оригмаг,Origmag,Ts.Oyungerel,99179249,П.Отгонцэрэн,40,{BBFF2FEE-FE10-4460-B6F9-A6A7B093C65D},,,,,,11905055.64702834,6093597.114855926,"11905055.64702834,6093597.114855926","(47.920247581621325, 106.94493446018976)"
225,1.0,Хүрмэн,Khurmen,B.Otgomdulam,452328,П.Отгонцэрэн,34,{5386FA12-0E6C-4CFD-A877-B10501C63630},,,,,,11904623.708632892,6094267.937792098,"11904623.708632892,6094267.937792098","(47.9242859048477, 106.94105429156548)"
226,1.0,Ивээхүй эс,Iveehui es,D.Sukhee,88134966,П.Отгонцэрэн,11,{6987AB46-5867-432B-8CB2-48F6659CC4F7},,,,,,11898905.362904299,6091921.345323214,"11898905.362904299,6091921.345323214","(47.91015814866792, 106.88968551788673)"
227,2.0,Даш,Dash ,Ts.Dashzeveg,99117907,П.Отгонцэрэн,183,{7A6B60CA-3D06-45B0-BA04-B107CB7439D2},,,,,,11897356.090040997,6093298.620965652,"11897356.090040997,6093298.620965652","(47.91845056078095, 106.87576816296296)"
228,1.0,Шинэ зуун ,Shine zuun ,G.Ochgerel,99131053,П.Отгонцэрэн,91,{65A1EC24-3ED8-4A77-9D5E-B870F2E864A7},,,,,,11901082.078973087,6092149.416918347,"11901082.078973087,6092149.416918347","(47.91153143230745, 106.90923929102452)"
229,2.0,Арвижих халиун,Arvijikh khaliun,Sh.Tumendeberel,99157858,П.Отгонцэрэн,352,{3268318D-3ABF-4847-9571-DEDC38BF9E37},,,,,,11901828.601433868,6094873.520695593,"11901828.601433868,6094873.520695593","(47.927931215326005, 106.91594541638909)"
230,2.0,Зүтгэл фарм ,Zutgel pharm,B.Enkhbaatar,98182914,П.Отгонцэрэн,340,{8BEB289B-B22E-4C82-AB5B-898898FA68F1},,,,,,11902564.81095186,6095536.892523997,"11902564.81095186,6095536.892523997","(47.931924091784566, 106.92255889901237)"
231,1.0,Цэгэма,Tsegema,B.Tsermaa,"345295,91919070",П.Отгонцэрэн,103,{27C93252-8664-4F04-9E71-284D47853E8C},,,,,,11899885.549844516,6089937.987430907,"11899885.549844516,6089937.987430907","(47.89821425290594, 106.89849068698364)"
232,,,,,,,395,{4C501C34-A749-4406-B9C3-F6E31347C872},,,,,,11898442.15965849,6096782.211183364,"11898442.15965849,6096782.211183364","(47.93941891000688, 106.88552449233308)"
233,2.0,Тод билэг,Tod bileg,S.Rina,91354800,П.Отгонцэрэн,389,{E82301F6-D48F-4F0C-9187-F777945CB961},,,,,,11899749.839539044,6100584.314706489,"11899749.839539044,6100584.314706489","(47.96229474509041, 106.89727158056746)"
234,1.0,Анбарай ,Anbarai,Kh.Lkhagvasuren,91181903,П.Отгонцэрэн,97,{69098DD7-A526-4D7A-A3EF-71BDFAA61AE2},,,,,,11903230.976614676,6094865.582062422,"11903230.976614676,6094865.582062422","(47.927883430330546, 106.92854316697903)"
235,2.0,Цаа ов,Tsaa ov,D.Tsetsegmaa,99082879,П.Отгонцэрэн,346,{7BD576A8-93EC-4D38-8393-4F6CB15A1A32},,,,,,11901649.395937217,6098585.518399807,"11901649.395937217,6098585.518399807","(47.9502699975975, 106.91433558602273)"
236,1.0,Анис фарм,Anis pharm,D.Tumurbat,99133872,П.Отгонцэрэн,197,{6DA3D2EE-C5A5-4146-9581-700A5E2DEFA8},,,,,,11901708.826680789,6094295.491362862,"11901708.826680789,6094295.491362862","(47.924451769336294, 106.91486946147569)"
237,2.0,МЭИКонцерний фарм,MEIKoncern pharm,Z.Altantsetseg,99921250,П.Отгонцэрэн,246,{E619D350-75AA-4E68-A7F7-DA8EFD33CA7E},,,,,,11908321.508441767,6093722.505098776,"11908321.508441767,6093722.505098776","(47.921002449073065, 106.97427219242473)"
238,2.0,Хүрэл роуд,Khurel road ,E.Tuvshinzul,99107988,П.Отгонцэрэн,214,{D22AD658-3840-4129-AAF5-39B9539AA0CA},,,,,,11903704.652532002,6094744.735269213,"11903704.652532002,6094744.735269213","(47.927156012068984, 106.93279827014155)"
239,2.0,Ягаан мугз,Yagaan mugz,D.Baigalmaa,99012910,П.Отгонцэрэн,237,{DB1DF691-1D2C-4C21-976A-965889D286C5},,,,,,11908585.611240575,6092687.228463345,"11908585.611240575,6092687.228463345","(47.91476960358541, 106.97664466823223)"
240,1.0,Мөнхийн чидун,Munkhiin Chidun,N.Tsogzolmaa,99997235,П.Отгонцэрэн,120,{C1254A30-1CF8-49DA-8C5C-A6C00C213198},,,,,,11899813.660866626,6092349.584644048,"11899813.660866626,6092349.584644048","(47.912736668822966, 106.89784489730764)"
241,1.0,Төхөм фарм,Tuhum pharm,N.Byamaasuren,99169555,П.Отгонцэрэн,166,{5AB4B1A2-9A86-4A25-92FD-9C968F02C0F3},,,,,,11900800.542625582,6093462.856838338,"11900800.542625582,6093462.856838338","(47.91943931666856, 106.90671020698454)"
242,2.0,Хорго үжин,Khorgo Ujin,D.Norjinsuren,99196285,П.Отгонцэрэн,312,{8BE8D288-ADA4-4924-A399-2CCF6DFFF65E},,,,,,11902780.0206097,6093306.142392525,"11902780.0206097,6093306.142392525","(47.91849584274519, 106.92449216026165)"
243,2.0,Хонхондой фарм,Khonkhondoi pharm,Kh.Munkhtsog,,П.Отгонцэрэн,306,{B0C4437E-E724-45B1-BD2F-A427ABA51EAF},,,,,,11903233.653268721,6092925.787236557,"11903233.653268721,6092925.787236557","(47.91620590461555, 106.9285672117714)"
244,2.0,Закира ,Zakira,D.Damdindorj,,П.Отгонцэрэн,383,{1049743D-8C45-4EF8-8667-A710FE1D3950},,,,,,11899045.623899445,6090077.166561737,"11899045.623899445,6090077.166561737","(47.899052487581415, 106.89094550384378)"
245,2.0,Нахиа маршал,Nakhia Marshal,Urantsetseg,99137427,П.Отгонцэрэн,360,{185F2EF7-2463-47E7-8581-81E6F13F1945},,,,,,11903821.566270273,6089358.706899579,"11903821.566270273,6089358.706899579","(47.89472527207343, 106.93384852412167)"
246,2.0,Мөнх хайргана,Munkh khargana,N.Munkhbat,99083590,П.Отгонцэрэн,329,{EE67C7FA-80E0-4983-B020-69A69602D5DF},,,,,,11901999.76211197,6094968.721705946,"11901999.76211197,6094968.721705946","(47.928504255098154, 106.91748297892089)"
247,2.0,Гануур хатан,Ganuur khatan,Ts.idesh,"99185709,363376",П.Отгонцэрэн,260,{41F437A0-6275-43B8-A360-8585A7DCC929},,,,,,11908131.904715477,6094487.319512719,"11908131.904715477,6094487.319512719","(47.925606504310124, 106.97256895317221)"
248,2.0,Буман сан,Buman san,J.Oyuntsetseg,,П.Отгонцэрэн,220,{9346C4DC-E339-4DC7-8043-7B119512F9C4},,,,,,11904563.242810346,6093741.728164492,"11904563.242810346,6093741.728164492","(47.92111817374354, 106.94051111783988)"
249,1.0,Вест фарм,Best pharm,S.Erdemmandakh,99065882,П.Отгонцэрэн,20,{0AA605F7-4DFC-47AF-BD6F-61E736ECBA4E},,,,,,11898862.289238283,6094510.76115229,"11898862.289238283,6094510.76115229","(47.925747612599004, 106.88929858056147)"
250,1.0,Булга медикал эс,Bulga medical es,B.Enkhtuya,99057000,П.Отгонцэрэн,28,{51A2795D-3697-4D34-889E-A3DA9FF2AD62},,,,,,11904139.027808197,6093227.690508124,"11904139.027808197,6093227.690508124","(47.918023529426875, 106.93670032963804)"
251,2.0,Ази фарм,Asia pharm-SB,S.Ayurbunia,70117122,П.Отгонцэрэн,323,{7A298B07-31D5-4A92-9EF0-CF2427C00C7A},,,,,,11900379.83379203,6092400.206720154,"11900379.83379203,6092400.206720154","(47.91304146663308, 106.90293091523112)"
252,1.0,Армонфарм,Armonpharm,B.Nyamaa,99025599,П.Отгонцэрэн,174,{0427A5B8-4935-4AA9-9A94-4838D274D09F},,,,,,11900108.023263702,6093295.393798231,"11900108.023263702,6093295.393798231","(47.91843113194468, 106.90048919971129)"
253,2.0,Тосон аньс,Toson anis,L.Ulambayar,99060896,П.Отгонцэрэн,369,{68DF5FA5-7271-4EAF-840C-4F0CCBC5D484},,,,,,11897973.987858081,6090646.496417367,"11897973.987858081,6090646.496417367","(47.90248125134304, 106.88131883349406)"
254,2.0,Бэриш фарм ,Berish pharm,Kh.Erdenetsetseg,99117907,П.Отгонцэрэн,320,{C9E5EFE4-402D-4362-BCAB-8DB661E33DDA},,,,,,11900854.245438656,6092597.398822933,"11900854.245438656,6092597.398822933","(47.91422875208632, 106.9071926275624)"
255,2.0,Гладиалиус,Gladialuis,M.Enkhtuya,99154190,П.Отгонцэрэн,392,{737CF125-6414-47D1-ADAA-A19E8D47D359},,,,,,11901811.465490596,6101787.2553518545,"11901811.465490596,6101787.2553518545","(47.96953028043477, 106.91579148159163)"
256,2.0,Ариун тун,Ariun tun,Kh.Khorolsuren,99761341,П.Отгонцэрэн,131,{ACE73BAE-E71E-4089-93F6-AB44AEC393E0},,,,,,11898544.772198623,6092473.806756798,"11898544.772198623,6092473.806756798","(47.91348461258038, 106.88644627646451)"
257,2.0,Нахиа эрдэнэ,Nakhia erdene,D.Tegshsuren,"98650067,463045",П.Отгонцэрэн,249,{2B8E39C2-E379-42BD-B671-4C0AE673EBDA},,,,,,11904113.824857093,6092799.9916773345,"11904113.824857093,6092799.9916773345","(47.91544852686958, 106.93647392767622)"
258,2.0,Бужлай,Bujlai,B.Alagaa,367016,П.Отгонцэрэн,206,{149D23C2-F809-4884-BA1E-622BA9126BAB},,,,,,11898425.269123971,6092815.047614736,"11898425.269123971,6092815.047614736","(47.91553917478651, 106.88537276207992)"
259,2.0,Маго ХХК,Mago.llc,G.Oyuntsetseg,99094105,П.Отгонцэрэн,157,{C2FFC813-9ED7-4FA0-B79E-F0531C0A968D},,,,,,11897814.536983054,6093906.041244288,"11897814.536983054,6093906.041244288","(47.9221073434333, 106.87988646191305)"
260,1.0,МОнос макс моол,Monos Max mall,M.Suvdmaa,99117102,П.Отгонцэрэн,14,{1B0CE5D3-C823-40C9-A459-F4D8375EBB31},,,,,,11899199.304284552,6092854.566790448,"11899199.304284552,6092854.566790448","(47.91577710879794, 106.89232603823189)"
261,1.0,Сакура фарм,Sakura pharm,D.Oyunbayar,99178103,П.Отгонцэрэн,37,{E38EB963-A9A0-4E75-82BD-5F8B4C0C128F},,,,,,11904224.85691017,6093506.902709935,"11904224.85691017,6093506.902709935","(47.919704484602896, 106.93747134557927)"
262,2.0,Шинэ даль,Shine dali,P.Otgonbayar,99740535,П.Отгонцэрэн,386,{6ABB1976-CD9B-4876-B190-C820732F8B02},,,,,,11901158.88456044,6094494.859109719,"11901158.88456044,6094494.859109719","(47.92565188938708, 106.90992924735478)"
263,2.0,Ач үр,Ach ur ,G.Battsetseg,99181444,П.Отгонцэрэн,137,{395EBEEA-7861-449F-8AED-5B7373BBEB00},,,,,,11900199.518507266,6093373.670290959,"11900199.518507266,6093373.670290959","(47.91890238562351, 106.90131111546846)"
264,2.0,Баянцагаан гоёо ,Bayantsagaan goyo,D.Otgonsuren,99255504,П.Отгонцэрэн,243,{09F0CA48-1139-4AB3-96EE-B4AC49EF6216},,,,,,11911747.504607832,6095952.79849646,"11911747.504607832,6095952.79849646","(47.934427298577056, 107.00504843961785)"
265,2.0,Эн Би Эм Энд Эйч,NBM&H,A.Ariunbayar,99065484,П.Отгонцэрэн,349,{FE1E4524-2AEA-4A75-97CB-2159075E54A2},,,,,,11903557.809685871,6103201.308251692,"11903557.809685871,6103201.308251692","(47.978034333201656, 106.93147915841112)"
266,1.0,Хонхлой арвижих,Khonkhloi arvijikh,D.Davaa,99185468,П.Отгонцэрэн,8,{C0D4AFE3-0F0C-4C6C-90B7-8AF165BC2587},,,,,,11897460.618019387,6092498.716008874,"11897460.618019387,6092498.716008874","(47.91363459037048, 106.87670715376903)"
267,1.0,Хүдэрбаян эс,Khuderbayan es,Ts.Kherlentsetseg,"98982147,55252147",П.Отгонцэрэн,51,{F489AD6E-0369-42A6-90BB-65FB76D92E6B},,,,,,11907350.13111636,6093451.066389728,"11907350.13111636,6093451.066389728","(47.91936833478205, 106.96554616144414)"
268,1.0,Жаргал мөнх,Jargal munkh,J.Nasanjargal,315678,П.Отгонцэрэн,194,{F42A3C99-B7BF-4F02-B7C9-EFB6CD481FB7},,,,,,11901291.496417198,6094044.48449851,"11901291.496417198,6094044.48449851","(47.92294076131217, 106.9111205199326)"
269,2.0,Бүжи фарм,Buji pharm,D.Bujmaa,99188529,П.Отгонцэрэн,151,{B3FF9BD6-445B-49BF-AEA6-10C3A9A8535E},,,,,,11899021.025962036,6093154.706495546,"11899021.025962036,6093154.706495546","(47.9175841311237, 106.89072453681244)"
270,1.0,Түшиглэн,Tushiglen,S.Tsevegjav,99113167,П.Отгонцэрэн,200,{A69FB48F-778A-4EFF-A694-75B7CD5A5EAC},,,,,,11900718.135091536,6094176.818005935,"11900718.135091536,6094176.818005935","(47.92373738642782, 106.90596992751094)"
271,1.0,Хүж баян Барьхан,Khuj bayan Barikhan,B.Bayarmaa,95204110,П.Отгонцэрэн,100,{E9D3FAB9-77C5-41B7-8697-5EB182DC2B4E},,,,,,11901025.69765311,6090981.41804961,"11901025.69765311,6090981.41804961","(47.90449819590329, 106.90873280900979)"
272,2.0,Сүлдэн,Sulden,Z.Baasankhuu,99158462,П.Отгонцэрэн,343,{7A2761B4-802D-4E1C-B460-30FEB541B080},,,,,,11902758.06970694,6095650.549149657,"11902758.06970694,6095650.549149657","(47.932608167177996, 106.92429497194715)"
